TEVEL2-3                
1 63218U 25052J   26068.64540225  .00020365  00000+0  69446-3 0  9991
2 63218  97.3994 324.7775 0004761 105.7353 254.4413 15.30377031 54855
STARLINK-33874          
1 63825U 25092X   26068.29578196  .00018619  00000+0  68397-3 0  9991
2 63825  42.9998 174.8326 0001938 260.7571  99.3062 15.27601246 48608
