[{"OBJECT_NAME":"TEVEL2-3","OBJECT_ID":"2025-052J","EPOCH":"2026-03-09T15:29:22.754400","MEAN_MOTION":15.30377031,"ECCENTRICITY":0.0004761,"INCLINATION":97.3994,"RA_OF_ASC_NODE":324.7775,"ARG_OF_PERICENTER":105.7353,"MEAN_ANOMALY":254.4413,"EPHEMERIS_TYPE":0,"CLASSIFICATION_TYPE":"U","NORAD_CAT_ID":63218,"ELEMENT_SET_NO":999,"REV_AT_EPOCH":5485,"BSTAR":0.00069446,"MEAN_MOTION_DOT":0.00020365,"MEAN_MOTION_DDOT":0},{"OBJECT_NAME":"STARLINK-33874","OBJECT_ID":"2025-092X","EPOCH":"2026-03-09T07:05:55.561344","MEAN_MOTION":15.27601246,"ECCENTRICITY":0.00019388,"INCLINATION":42.9998,"RA_OF_ASC_NODE":174.8326,"ARG_OF_PERICENTER":260.7571,"MEAN_ANOMALY":99.3062,"EPHEMERIS_TYPE":0,"CLASSIFICATION_TYPE":"U","NORAD_CAT_ID":63825,"ELEMENT_SET_NO":999,"REV_AT_EPOCH":4860,"BSTAR":0.00068397391,"MEAN_MOTION_DOT":0.00018619,"MEAN_MOTION_DDOT":0}]
